RAVAN                   
1 41849U 16067B   22257.84376704  .00004165  00000+0  32882-3 0  9994
2 41849  98.0101  37.4929 0015979  43.7362 316.5124 15.01187181319409
CELTEE 1                
1 41850U 16067C   22257.85161550  .00003272  00000+0  27674-3 0  9999
2 41850  98.0094  32.1921 0009117  50.7410 309.4619 14.98761531319148
OPTICUBE 04             
1 41851U 16067D   22257.60825801  .00001387  00000+0  12275-3 0  9995
2 41851  98.0096  30.8789 0010031  49.3048 310.9043 14.97990191319059
AEROCUBE 8D             
1 41852U 16067E   22257.64590728  .00003514  00000+0  29728-3 0  9992
2 41852  98.0065  30.9974 0009714  52.0940 308.1158 14.98698391319055
AEROCUBE 8C             
1 41853U 16067F   22258.16284938  .00003597  00000+0  30430-3 0  9997
2 41853  98.0057  31.3429 0009677  44.2596 315.9398 14.98673971319122
PROMETHEUS 2-1          
1 41854U 16067G   22257.85708490  .00005957  00000+0  48216-3 0  9990
2 41854  98.0070  32.2669 0016379  52.5296 307.7413 15.00040797319147
PROMETHEUS 2-3          
1 41855U 16067H   22257.84824697  .00005534  00000+0  44848-3 0  9996
2 41855  98.0044  32.3471 0014539  67.7879 292.4884 15.00050123319148
INS-1B                  
1 41954U 17008G   22258.15729136  .00021107  00000+0  65304-3 0  9993
2 41954  97.2483 316.2653 0005592 271.7302  88.3300 15.33491280310481
BGUSAT                  
1 41999U 17008BD  22258.14594923  .00059288  00000+0  12108-2 0  9999
2 41999  97.2724 328.5009 0003610 238.5449 121.5448 15.45968952310471
DIDO-2                  
1 42000U 17008BE  22258.14441357  .00011267  00000+0  39457-3 0  9997
2 42000  97.2476 315.1948 0005761 305.8497  54.2208 15.29634712309776
PEASSS                  
1 42015U 17008BV  22257.13671875  .00013447  00000+0  41962-3 0  9997
2 42015  97.2543 318.5465 0003608 303.8148  56.2751 15.33325036310359
AL-FARABI 1             
1 42016U 17008BW  22257.62256737  .00020896  00000+0  57937-3 0  9993
2 42016  97.2608 322.5327 0002795 287.0118  73.0821 15.36958926310730
NAYIF-1 (EO-88)         
1 42017U 17008BX  22258.14955957  .00029321  00000+0  80600-3 0  9997
2 42017  97.2597 323.0765 0003037 283.0400  77.0505 15.37158621310840
UCLSAT                  
1 42765U 17036A   22257.56011310  .00014684  00000+0  48359-3 0  9990
2 42765  97.1892 297.5025 0008974  18.2628 341.8934 15.31540542291483
LITUANICASAT-2          
1 42768U 17036D   22257.56521182  .00033258  00000+0  84197-3 0  9994
2 42768  97.1969 301.2020 0008418 355.3797   4.7370 15.39640976290943
AALTO-1                 
1 42775U 17036L   22257.54029819  .00008234  00000+0  31610-3 0  9998
2 42775  97.1905 291.9793 0012525  19.5541 340.6176 15.26635485290360
URSA MAIOR              
1 42776U 17036M   22258.07526549  .00009184  00000+0  34519-3 0  9996
2 42776  97.1919 293.3190 0012043  16.6852 343.4781 15.27309410290484
COMPASS 2               
1 42777U 17036N   22257.08610672  .00025722  00000+0  75150-3 0  9990
2 42777  97.1960 299.6125 0008522   5.5412 354.5925 15.35245861290733
DIAMOND RED             
1 42783U 17036U   22257.57471776  .00010741  00000+0  38635-3 0  9993
2 42783  97.1920 295.3433 0010570  23.5274 336.6448 15.28730361290550
PEGASUS                 
1 42784U 17036V   22258.06097259  .00014702  00000+0  49936-3 0  9996
2 42784  97.1912 297.1510 0009867  19.0650 341.0959 15.30533452290713
DIAMOND GREEN           
1 42785U 17036W   22258.09900316  .00011466  00000+0  41234-3 0  9994
2 42785  97.1923 295.9130 0010323  23.6429 336.5284 15.28723784290620
DIAMOND BLUE            
1 42786U 17036X   22257.57438797  .00010662  00000+0  38383-3 0  9994
2 42786  97.1922 295.3981 0010436  25.8329 334.3431 15.28706180290627
NUDTSAT                 
1 42787U 17036Y   22257.92883876  .00024550  00000+0  68681-3 0  9991
2 42787  97.1940 301.8628 0007813   6.1206 354.0154 15.36620828290826
SUCHAI                  
1 42788U 17036Z   22257.35524114  .00015954  00000+0  50704-3 0  9991
2 42788  97.1914 298.3611 0008906  16.8644 343.2893 15.32667933290798
SKCUBE                  
1 42789U 17036AA  22257.07430154  .00016098  00000+0  52714-3 0  9994
2 42789  97.1915 297.4434 0009148  19.0113 341.1469 15.31704191290634
VZLUSAT-1               
1 42790U 17036AB  22257.36028561  .00022953  00000+0  64749-3 0  9991
2 42790  97.1933 301.2526 0007220   9.4262 350.7117 15.36378743290887
ROBUSTA 1B              
1 42792U 17036AD  22258.10659982  .00017460  00000+0  55916-3 0  9996
2 42792  97.1914 299.0816 0008524  15.7243 344.4263 15.32406593290840
CICERO 6                
1 42793U 17036AE  22257.86471160  .00010296  00000+0  37270-3 0  9992
2 42793  97.1898 296.1323 0009109  24.2498 335.9170 15.28548182290725
CORVUS BC2              
1 42846U 17042X   22257.55463202  .00001688  00000+0  16697-3 0  9997
2 42846  97.4128 109.7877 0010818  62.4620 297.7698 14.93079269281575
CORVUS BC1              
1 42847U 17042Y   22257.83014636  .00001382  00000+0  13725-3 0  9992
2 42847  97.4130 110.3684 0010493  60.8978 299.3292 14.93178348281622
MIRATA                  
1 43015U 17073C   22257.66549478  .00007115  00000+0  51293-3 0  9994
2 43015  97.6610 149.6709 0233771 247.4549 110.1776 14.85044023260505
MAKERSAT 0              
1 43016U 17073D   22258.21107578  .00005290  00000+0  39242-3 0  9990
2 43016  97.6620 149.5528 0241585 250.7989 106.6942 14.83060804260487
ASGARDIA 1              
1 43049U 17071N   22255.05173450  .15425766  12621-4  25874-3 0  9998
2 43049  51.6097 313.3868 0002955 270.4685  89.6006 16.47958215269368
CORVUS BC3              
1 43118U 18004H   22257.63574431  .00008731  00000+0  31778-3 0  9998
2 43118  97.3555 329.2244 0010052  54.5609 305.6568 15.28415566259839
MICROMAS-2A             
1 43131U 18004W   22258.20175703  .00041766  00000+0  10457-2 0  9991
2 43131  97.3690 337.8932 0005849  38.3688 321.7973 15.39950722260378
SPACEBEE-4              
1 43139U 18004AE  22258.20426457  .00112638  00000+0  17879-2 0  9996
2 43139  97.3782 344.3104 0002958  23.9502 336.1888 15.52956413260727
SPACEBEE-3              
1 43140U 18004AF  22258.18872535  .00624906  00000+0  29554-2 0  9996
2 43140  97.3775 350.2876 0005544 275.1414  84.9222 15.81398446261099
CICERO 7                
1 43143U 18004AJ  22257.65810658  .00020816  00000+0  59701-3 0  9996
2 43143  97.3677 336.4131 0006135  53.0275 307.1529 15.35889670260258
GOMX-4B                 
1 43196U 18015E   22257.70461334  .00008664  00000+0  31871-3 0  9990
2 43196  97.5465  38.0348 0018205 101.7674 258.5608 15.27967933256783
GOMX-4A                 
1 43197U 18015F   22258.23915690  .00009941  00000+0  34469-3 0  9994
2 43197  97.5457  39.6228 0017768  99.3068  19.6059 15.29870668256945
AEROCUBE 12A            
1 43556U 18046C   22257.62374092  .00024722  00000+0  57218-3 0  9995
2 43556  51.6354 108.2186 0005674   4.2421 355.8612 15.42298872233062
AEROCUBE 12B            
1 43557U 18046D   22258.08060321  .00020889  00000+0  52913-3 0  9991
2 43557  51.6362 111.9375 0006067   1.4803 358.6198 15.39668277233003
SURFSAT                 
1 43614U 18070B   22257.90395030  .00063818  00000+0  73071-3 0  9997
2 43614  93.0187 136.8696 0010587  40.4095 319.7956 15.61854547224992
CP7 (DAVE)              
1 43615U 18070C   22258.19651832  .00069364  00000+0  85700-3 0  9999
2 43615  93.0170 136.7437 0011443  41.0834 319.1291 15.59834910224992
ELFIN-B                 
1 43616U 18070D   22258.19747999  .00612764  15804-3  15050-2 0  9990
2 43616  93.0002 138.9832 0003659  80.5058 279.6640 15.96100555225504
ELFIN-A                 
1 43617U 18070E   22258.19050688  .02401119  19965-6  13401-2 0  9998
2 43617  93.0012 140.7397 0004225 197.6616 162.4535 16.19421292225606
CUBEBEL-1 (BSUSAT-1)    
1 43666U 18083E   22258.14751381  .00010762  00000+0  43852-3 0  9994
2 43666  97.4157 285.8726 0013432  25.6944  15.2881 15.24563606215147
CICERO 10               
1 43690U 18088A   22257.45391467  .00009586  00000+0  37111-3 0  9997
2 43690  85.0324 257.2021 0013791 166.8619 193.2988 15.25940115213327
IRVINE01                
1 43693U 18088D   22257.45552469  .00054564  00000+0  12059-2 0  9990
2 43693  85.0240 250.2354 0014714 126.2452 234.0163 15.43511622213922
PROXIMA I               
1 43694U 18088E   22258.03836674  .00010185  00000+0  37410-3 0  9999
2 43694  85.0263 253.2773 0018691 135.8595 224.4146 15.27606968213630
PROXIMA II              
1 43696U 18088G   22257.45038409  .00009689  00000+0  35625-3 0  9999
2 43696  85.0264 253.6924 0018671 137.8335 222.4350 15.27566165213546
FACSAT-1                
1 43721U 18096C   22258.18000976  .00027516  00000+0  70445-3 0  9994
2 43721  97.3458 338.0663 0013956  92.7396 351.8207 15.39272435211768
CENTAURI-2              
1 43722U 18096D   22257.68511813  .00038630  00000+0  85403-3 0  9995
2 43722  97.3505 340.1124 0012317  89.6984 270.5675 15.43654912211828
INNOSAT-2               
1 43738U 18096V   22258.15041039  .00102886  00000+0  13159-2 0  9996
2 43738  97.3607 349.3918 0009855  78.6273   9.2296 15.58821960212431
SIRION PATHFINDER-2     
1 43759U 18099B   22257.83831208  .00001870  00000+0  16893-3 0  9991
2 43759  97.6117 322.2496 0013102 325.5843  34.4529 14.96603579206416
CORVUS BC4              
1 43767U 18099K   22258.16289619  .00002127  00000+0  19446-3 0  9993
2 43767  97.6074 320.9412 0010782 332.5166  27.5484 14.96011125206386
MOVE-II                 
1 43780U 18099Y   22257.85707191  .00005666  00000+0  48018-3 0  9991
2 43780  97.6158 323.2256 0011432 335.7914  24.2770 14.98308599206440
SPACEBEE-7              
1 43816U 18099BL  22257.65198682  .00004138  00000+0  35391-3 0  9991
2 43816  97.6176 323.7543 0011578 317.3058  42.7264 14.98106187206004
SPACEBEE-5              
1 43817U 18099BM  22257.14977837  .00011382  00000+0  86239-3 0  9999
2 43817  97.6255 326.7552 0005193 313.6770  46.4024 15.02421223206082
